ADRAS-J                 
1 58992U 24034A   24179.22405053  .00004789  00000+0  44475-3 0  9994
2 58992  98.2129 152.6976 0044485  18.4426 341.8393 14.94161062 19366
